IRIDIUM 136             
1 42962U 17061H   23215.77225220  .00000354  00000+0  11950-3 0  9998
2 42962  86.3955 103.4323 0001929  83.5958 276.5458 14.34218854304561
